[{"OBJECT_NAME":"STARLINK-33952","OBJECT_ID":"2025-102AA","EPOCH":"2026-03-09T13:16:46.572384","MEAN_MOTION":14.9834229,"ECCENTRICITY":0.0003793,"INCLINATION":70.0006,"RA_OF_ASC_NODE":114.7215,"ARG_OF_PERICENTER":269.3018,"MEAN_ANOMALY":90.7707,"EPHEMERIS_TYPE":0,"CLASSIFICATION_TYPE":"U","NORAD_CAT_ID":64046,"ELEMENT_SET_NO":999,"REV_AT_EPOCH":4593,"BSTAR":0.00039128,"MEAN_MOTION_DOT":4.58e-5,"MEAN_MOTION_DDOT":0},{"OBJECT_NAME":"CZ-6A DEB","OBJECT_ID":"2024-140HT","EPOCH":"2026-03-09T14:47:18.537792","MEAN_MOTION":14.73340782,"ECCENTRICITY":0.0120127,"INCLINATION":88.9844,"RA_OF_ASC_NODE":279.929,"ARG_OF_PERICENTER":188.2272,"MEAN_ANOMALY":171.6982,"EPHEMERIS_TYPE":0,"CLASSIFICATION_TYPE":"U","NORAD_CAT_ID":60840,"ELEMENT_SET_NO":999,"REV_AT_EPOCH":8412,"BSTAR":0.0011992,"MEAN_MOTION_DOT":8.732e-5,"MEAN_MOTION_DDOT":0}]
